ONEWEB-0153             
1 48044U 21025C   23274.92258835 -.00000095  00000+0 -29377-3 0  9996
2 48044  87.9056 157.0519 0001663  71.5647 288.5663 13.13468338123689
ONEWEB-0154             
1 48045U 21025D   23275.37752514  .00000100  00000+0  23946-3 0  9991
2 48045  87.9059 156.9722 0001786  73.0357 287.0967 13.13468307123719
ONEWEB-0116             
1 48046U 21025E   23274.73426354  .00000413  00000+0  10970-2 0  9990
2 48046  87.9054 157.0693 0002022  80.2765 279.8593 13.13470766123762
ONEWEB-0150             
1 48047U 21025F   23275.08763377 -.00000180  00000+0 -52884-3 0  9993
2 48047  87.9058 157.0238 0001568  74.8875 285.2428 13.13469432123707
ONEWEB-0107             
1 48048U 21025G   23274.70884653 -.00000278  00000+0 -79524-3 0  9991
2 48048  87.9059 157.0971 0001343  72.8898 287.2378 13.13468266123639
ONEWEB-0101             
1 48049U 21025H   23275.43466306  .00000321  00000+0  84325-3 0  9996
2 48049  87.9054 156.9631 0001766  68.8872 291.2446 13.13472645123707
ONEWEB-0113             
1 48050U 21025J   23275.41139134 -.00000070  00000+0 -22749-3 0  9997
2 48050  87.8996 156.9846 0001908  75.6377 284.4964 13.13468696123783
ONEWEB-0112             
1 48051U 21025K   23275.39869281 -.00000262  00000+0 -75218-3 0  9990
2 48051  87.9057 156.9591 0001696  77.3051 282.8267 13.13471673123802
